{
  "type": "FeatureCollection",
  "features": [
    {
      "type": "Feature",
      "properties": {
        "norad_id": 38867,
        "name": "INTELSAT 23 (IS-23)",
        "group": "intelsat",
        "lat": -0.02328608735495502,
        "lon": 2.175628400996189,
        "alt_km": 35792.47635131158,
        "timestamp": "2025-12-05T22:40:48.226895+00:00",
        "meta_object_name": "INTELSAT 23 (IS-23)",
        "meta_object_id": "2012-057A",
        "meta_epoch": "2025-12-05T03:10:19.318656",
        "meta_mean_motion": 1.00269316,
        "meta_eccentricity": 0.00017305,
        "meta_inclination": 0.0481,
        "meta_ra_of_asc_node": 104.7463,
        "meta_arg_of_pericenter": 117.052,
        "meta_mean_anomaly": 206.9649,
        "meta_ephemeris_type": 0,
        "meta_classification_type": "U",
        "meta_norad_cat_id": 38867,
        "meta_element_set_no": 999,
        "meta_rev_at_epoch": 4800,
        "meta_bstar": 0,
        "meta_mean_motion_dot": -2.72e-06,
        "meta_mean_motion_ddot": 0,
        "tle_line1": "1 38867U 12057A   25339.13216804 -.00000272  00000+0  00000+0 0  9994",
        "tle_line2": "2 38867   0.0481 104.7463 0001730 117.0520 206.9649  1.00269316 48005"
      },
      "geometry": {
        "type": "Point",
        "coordinates": [
          2.175628400996189,
          -0.02328608735495502
        ]
      }
    },
    {
      "type": "Feature",
      "properties": {
        "norad_id": 39360,
        "name": "FM-6",
        "group": "intelsat",
        "lat": 0.0008712792860981128,
        "lon": -60.94279361225852,
        "alt_km": 35792.95452247666,
        "timestamp": "2025-12-05T22:40:48.226907+00:00",
        "meta_object_name": "FM-6",
        "meta_object_id": "2013-058A",
        "meta_epoch": "2025-12-04T23:53:38.663232",
        "meta_mean_motion": 1.00272109,
        "meta_eccentricity": 0.0002861,
        "meta_inclination": 0.0056,
        "meta_ra_of_asc_node": 82.7816,
        "meta_arg_of_pericenter": 90.461,
        "meta_mean_anomaly": 143.0754,
        "meta_ephemeris_type": 0,
        "meta_classification_type": "U",
        "meta_norad_cat_id": 39360,
        "meta_element_set_no": 999,
        "meta_rev_at_epoch": 4412,
        "meta_bstar": 0,
        "meta_mean_motion_dot": -4e-08,
        "meta_mean_motion_ddot": 0,
        "tle_line1": "1 39360U 13058A   25338.99558638 -.00000004  00000+0  00000+0 0  9995",
        "tle_line2": "2 39360   0.0056  82.7816 0002861  90.4610 143.0754  1.00272109 44120"
      },
      "geometry": {
        "type": "Point",
        "coordinates": [
          -60.94279361225852,
          0.0008712792860981128
        ]
      }
    },
    {
      "type": "Feature",
      "properties": {
        "norad_id": 40271,
        "name": "INTELSAT 30 (IS-30)",
        "group": "intelsat",
        "lat": -0.020902443449614377,
        "lon": -39.88939674142115,
        "alt_km": 35789.13358053172,
        "timestamp": "2025-12-05T22:40:48.226919+00:00",
        "meta_object_name": "INTELSAT 30 (IS-30)",
        "meta_object_id": "2014-062A",
        "meta_epoch": "2025-12-04T23:32:53.890656",
        "meta_mean_motion": 1.0027017,
        "meta_eccentricity": 0.0001087,
        "meta_inclination": 0.0152,
        "meta_ra_of_asc_node": 18.8663,
        "meta_arg_of_pericenter": 65.0892,
        "meta_mean_anomaly": 248.2592,
        "meta_ephemeris_type": 0,
        "meta_classification_type": "U",
        "meta_norad_cat_id": 40271,
        "meta_element_set_no": 999,
        "meta_rev_at_epoch": 483,
        "meta_bstar": 0,
        "meta_mean_motion_dot": -1.38e-06,
        "meta_mean_motion_ddot": 0,
        "tle_line1": "1 40271U 14062A   25338.98117929 -.00000138  00000+0  00000+0 0  9995",
        "tle_line2": "2 40271   0.0152  18.8663 0001087  65.0892 248.2592  1.00270170  4837"
      },
      "geometry": {
        "type": "Point",
        "coordinates": [
          -39.88939674142115,
          -0.020902443449614377
        ]
      }
    },
    {
      "type": "Feature",
      "properties": {
        "norad_id": 40333,
        "name": "DIRECTV 14",
        "group": "intelsat",
        "lat": -0.008828667548289662,
        "lon": -44.03046466314147,
        "alt_km": 35787.46078060746,
        "timestamp": "2025-12-05T22:40:48.226931+00:00",
        "meta_object_name": "DIRECTV 14",
        "meta_object_id": "2014-078B",
        "meta_epoch": "2025-12-04T21:48:56.350656",
        "meta_mean_motion": 1.0027084,
        "meta_eccentricity": 5.995e-05,
        "meta_inclination": 0.0173,
        "meta_ra_of_asc_node": 326.0418,
        "meta_arg_of_pericenter": 234.0274,
        "meta_mean_anomaly": 101.9249,
        "meta_ephemeris_type": 0,
        "meta_classification_type": "U",
        "meta_norad_cat_id": 40333,
        "meta_element_set_no": 999,
        "meta_rev_at_epoch": 4009,
        "meta_bstar": 0,
        "meta_mean_motion_dot": -1.12e-06,
        "meta_mean_motion_ddot": 0,
        "tle_line1": "1 40333U 14078B   25338.90898554 -.00000112  00000+0  00000+0 0  9995",
        "tle_line2": "2 40333   0.0173 326.0418 0000599 234.0274 101.9249  1.00270840 40096"
      },
      "geometry": {
        "type": "Point",
        "coordinates": [
          -44.03046466314147,
          -0.008828667548289662
        ]
      }
    },
    {
      "type": "Feature",
      "properties": {
        "norad_id": 40663,
        "name": "DIRECTV 15",
        "group": "intelsat",
        "lat": -0.032075327022919264,
        "lon": -47.67667409888008,
        "alt_km": 35785.200250460264,
        "timestamp": "2025-12-05T22:40:48.226943+00:00",
        "meta_object_name": "DIRECTV 15",
        "meta_object_id": "2015-026A",
        "meta_epoch": "2025-12-05T04:26:38.705280",
        "meta_mean_motion": 1.00272329,
        "meta_eccentricity": 3.692e-05,
        "meta_inclination": 0.0404,
        "meta_ra_of_asc_node": 83.3006,
        "meta_arg_of_pericenter": 167.2939,
        "meta_mean_anomaly": 147.4493,
        "meta_ephemeris_type": 0,
        "meta_classification_type": "U",
        "meta_norad_cat_id": 40663,
        "meta_element_set_no": 999,
        "meta_rev_at_epoch": 3851,
        "meta_bstar": 0,
        "meta_mean_motion_dot": -9.1e-07,
        "meta_mean_motion_ddot": 0,
        "tle_line1": "1 40663U 15026A   25339.18517020 -.00000091  00000+0  00000+0 0  9998",
        "tle_line2": "2 40663   0.0404  83.3006 0000369 167.2939 147.4493  1.00272329 38519"
      },
      "geometry": {
        "type": "Point",
        "coordinates": [
          -47.67667409888008,
          -0.032075327022919264
        ]
      }
    },
    {
      "type": "Feature",
      "properties": {
        "norad_id": 40664,
        "name": "SKY MEXICO-1",
        "group": "intelsat",
        "lat": -0.007274436487711973,
        "lon": -23.55691553678208,
        "alt_km": 35782.1101752323,
        "timestamp": "2025-12-05T22:40:48.226955+00:00",
        "meta_object_name": "SKY MEXICO-1",
        "meta_object_id": "2015-026B",
        "meta_epoch": "2025-12-05T03:02:57.525216",
        "meta_mean_motion": 1.00270045,
        "meta_eccentricity": 0.00028355,
        "meta_inclination": 0.0161,
        "meta_ra_of_asc_node": 357.4059,
        "meta_arg_of_pericenter": 271.3142,
        "meta_mean_anomaly": 132.4452,
        "meta_ephemeris_type": 0,
        "meta_classification_type": "U",
        "meta_norad_cat_id": 40664,
        "meta_element_set_no": 999,
        "meta_rev_at_epoch": 3850,
        "meta_bstar": 0,
        "meta_mean_motion_dot": -2.22e-06,
        "meta_mean_motion_ddot": 0,
        "tle_line1": "1 40664U 15026B   25339.12705469 -.00000222  00000+0  00000+0 0  9995",
        "tle_line2": "2 40664   0.0161 357.4059 0002835 271.3142 132.4452  1.00270045 38507"
      },
      "geometry": {
        "type": "Point",
        "coordinates": [
          -23.55691553678208,
          -0.007274436487711973
        ]
      }
    },
    {
      "type": "Feature",
      "properties": {
        "norad_id": 40874,
        "name": "INTELSAT 34 (IS-34)",
        "group": "intelsat",
        "lat": 0.019349220875422995,
        "lon": -0.330345103234685,
        "alt_km": 35788.61596827755,
        "timestamp": "2025-12-05T22:40:48.226967+00:00",
        "meta_object_name": "INTELSAT 34 (IS-34)",
        "meta_object_id": "2015-039A",
        "meta_epoch": "2025-12-04T23:44:07.814112",
        "meta_mean_motion": 1.00269733,
        "meta_eccentricity": 4.423e-05,
        "meta_inclination": 0.0127,
        "meta_ra_of_asc_node": 327.7412,
        "meta_arg_of_pericenter": 214.8325,
        "meta_mean_anomaly": 192.0071,
        "meta_ephemeris_type": 0,
        "meta_classification_type": "U",
        "meta_norad_cat_id": 40874,
        "meta_element_set_no": 999,
        "meta_rev_at_epoch": 3767,
        "meta_bstar": 0,
        "meta_mean_motion_dot": -2.72e-06,
        "meta_mean_motion_ddot": 0,
        "tle_line1": "1 40874U 15039A   25338.98897933 -.00000272  00000+0  00000+0 0  9998",
        "tle_line2": "2 40874   0.0127 327.7412 0000442 214.8325 192.0071  1.00269733 37670"
      },
      "geometry": {
        "type": "Point",
        "coordinates": [
          -0.330345103234685,
          0.019349220875422995
        ]
      }
    }
  ]
}